      2.10          N: GNSS NAV DATA                        RINEX VERSION / TYPE
fic2rin                                 12/02/2020 00:17:15 PGM / RUN BY / DATE
                                                            END OF HEADER
 4 20 12  1 12  0  0.0-1.604040153325e-04-3.410605131648e-12 0.000000000000e+00
    1.650000000000e+02-5.312500000000e+00 4.918061999880e-09-4.088328371630e-01
   -4.377216100693e-07 9.443874005228e-04 5.120411515236e-06 5.153598218918e+03
    2.160000000000e+05 3.725290298462e-09 1.812437723603e+00 0.000000000000e+00
    9.596871307525e-01 2.802500000000e+02-3.054319873460e+00-8.106766250783e-09
   -1.928651764659e-10 1.000000000000e+00 2.134000000000e+03 0.000000000000e+00
    2.400000000000e+00 0.000000000000e+00-4.190951585770e-09 6.770000000000e+02
    2.088000000000e+05 4.000000000000e+00
28 20 12  1 12  0  0.0 6.487043574452e-04-4.774847184308e-12 0.000000000000e+00
    1.200000000000e+01 1.148750000000e+02 4.122671725825e-09 8.153051097132e-01
    5.876645445824e-06 1.832594629377e-02 6.219372153282e-06 5.153671516418e+03
    2.160000000000e+05-2.235174179077e-07-2.316313905303e+00-2.328306436539e-07
    9.752320221911e-01 2.688750000000e+02-1.370552187880e+00-8.219628094789e-09
    2.121516941125e-10 1.000000000000e+00 2.134000000000e+03 0.000000000000e+00
    2.400000000000e+00 0.000000000000e+00-1.117587089539e-08 1.200000000000e+01
    2.088000000000e+05 4.000000000000e+00
29 20 12  1 12  0  0.0-2.474095672369e-04-7.503331289627e-12 0.000000000000e+00
    8.000000000000e+01-3.375000000000e+01 4.205889477893e-09 8.583158931021e-02
   -1.808628439903e-06 1.461961190216e-03 7.823109626770e-08 5.153716402054e+03
    2.160000000000e+05-3.352761268616e-08-1.290951548491e+00-1.862645149231e-09
    9.847294721523e-01 3.875625000000e+02 2.265536230895e+00-8.274630385855e-09
   -8.214627886510e-12 1.000000000000e+00 2.134000000000e+03 0.000000000000e+00
    3.400000000000e+00 0.000000000000e+00-1.024454832077e-08 8.000000000000e+01
    2.088000000000e+05 4.000000000000e+00
16 20 12  1 12  0  0.0-2.441662363708e-04-5.343281372916e-12 0.000000000000e+00
    7.100000000000e+01 1.400937500000e+02 3.919448975068e-09 9.826111097197e-01
    7.441267371178e-06 1.179371948820e-02 6.780028343201e-06 5.153621374130e+03
    2.160000000000e+05-1.229345798492e-07-2.319932381970e+00 8.940696716309e-08
    9.761785609096e-01 2.558750000000e+02 6.317895941040e-01-8.010333662550e-09
    1.335769925893e-10 1.000000000000e+00 2.134000000000e+03 0.000000000000e+00
    2.400000000000e+00 0.000000000000e+00-1.071020960808e-08 7.100000000000e+01
    2.088000000000e+05 4.000000000000e+00
15 20 12  1 12  0  0.0-1.862714998424e-04 2.614797267597e-12 0.000000000000e+00
    3.600000000000e+01 2.656250000000e+00 5.801670234281e-09-8.804595149929e-01
    3.054738044739e-07 1.306299318094e-02 4.518777132034e-06 5.153769697189e+03
    2.160000000000e+05 7.264316082001e-08 1.668561980475e+00 2.905726432800e-07
    9.280394669917e-01 2.734687500000e+02 9.533826121440e-01-8.680718729636e-09
   -7.857470152314e-11 1.000000000000e+00 2.134000000000e+03 0.000000000000e+00
    2.400000000000e+00 0.000000000000e+00-1.071020960808e-08 3.600000000000e+01
    2.088000000000e+05 4.000000000000e+00
12 20 12  1 12  0  0.0 3.290129825473e-05-5.229594535194e-12 0.000000000000e+00
    4.200000000000e+01 1.400625000000e+02 3.871232680951e-09 2.834624028212e+00
    7.195398211479e-06 8.035404025577e-03 6.122514605522e-06 5.153601121902e+03
    2.160000000000e+05 8.381903171539e-08-2.338753661312e+00-1.117587089539e-08
    9.760396114875e-01 2.677812500000e+02 1.167614802152e+00-7.696034856457e-09
    2.692969315838e-10 1.000000000000e+00 2.134000000000e+03 0.000000000000e+00
    2.400000000000e+00 0.000000000000e+00-1.257285475731e-08 4.200000000000e+01
    2.088000000000e+05 4.000000000000e+00
10 20 12  1 12  0  0.0-5.756039172411e-06-8.981260180008e-12 0.000000000000e+00
    9.500000000000e+01-1.268750000000e+01 4.348752571572e-09 2.180400974498e+00
   -5.941838026047e-07 6.199856055900e-03 9.987503290176e-06 5.153671485901e+03
    2.160000000000e+05-1.899898052216e-07 7.293763446067e-01 2.607703208923e-08
    9.673841849886e-01 1.924687500000e+02-2.650931840375e+00-7.722821686522e-09
    6.389551864768e-10 1.000000000000e+00 2.134000000000e+03 0.000000000000e+00
    3.400000000000e+00 0.000000000000e+00 2.328306436539e-09 9.500000000000e+01
    2.088000000000e+05 4.000000000000e+00
13 20 12  1 12  0  0.0 7.047783583403e-05 3.865352482535e-12 0.000000000000e+00
    1.070000000000e+02-1.184375000000e+01 4.817700676571e-09-5.909888600753e-01
   -6.202608346939e-07 4.841892747208e-03 5.140900611877e-06 5.153675851822e+03
    2.160000000000e+05-5.587935447693e-08 1.908901564521e+00 6.332993507385e-08
    9.674892956526e-01 2.811875000000e+02 1.049093731971e+00-8.120338244682e-09
   -3.314423773340e-10 1.000000000000e+00 2.134000000000e+03 0.000000000000e+00
    2.400000000000e+00 0.000000000000e+00-1.164153218269e-08 1.070000000000e+02
    2.088000000000e+05 4.000000000000e+00
27 20 12  1 12  0  0.0-2.551916986704e-05-8.185452315956e-12 0.000000000000e+00
    9.300000000000e+01-9.437500000000e+00 4.455899891830e-09 8.206495122605e-02
   -4.600733518600e-07 8.590591372922e-03-5.587935447693e-09 5.153674459457e+03
    2.160000000000e+05 3.352761268616e-08-1.362686334841e+00 1.117587089539e-07
    9.769090207762e-01 3.888437500000e+02 5.658004492312e-01-8.486067764499e-09
    6.785996949726e-12 1.000000000000e+00 2.134000000000e+03 0.000000000000e+00
    3.400000000000e+00 0.000000000000e+00 1.862645149231e-09 9.300000000000e+01
    2.088000000000e+05 4.000000000000e+00
19 20 12  1 12  0  0.0-7.108738645911e-05 5.002220859751e-12 0.000000000000e+00
    7.500000000000e+01-3.484375000000e+01 4.247319775060e-09 2.548507480183e+00
   -1.903623342514e-06 9.002142352983e-03 4.153698682785e-07 5.153606906891e+03
    2.160000000000e+05 1.303851604462e-07-1.257671129176e+00-5.587935447693e-08
    9.813464638535e-01 3.814687500000e+02 1.753962313239e+00-8.064621638148e-09
   -9.786121916973e-11 1.000000000000e+00 2.134000000000e+03 0.000000000000e+00
    3.400000000000e+00 0.000000000000e+00-1.536682248116e-08 7.500000000000e+01
    2.088000000000e+05 4.000000000000e+00
22 20 12  1 12  0  0.0-7.219831459224e-04 5.684341886081e-12 0.000000000000e+00
    8.600000000000e+01-1.665625000000e+01 5.157357681791e-09-9.366926961877e-01
   -8.381903171539e-07 6.741677294485e-03 9.827315807343e-06 5.153666439056e+03
    2.160000000000e+05-5.774199962616e-08 6.391582378604e-01-9.126961231232e-08
    9.328354317915e-01 1.755000000000e+02-1.066571618029e+00-8.254986710474e-09
    5.846672108790e-10 1.000000000000e+00 2.134000000000e+03 0.000000000000e+00
    2.400000000000e+00 0.000000000000e+00-1.816079020500e-08 8.600000000000e+01
    2.088000000000e+05 4.000000000000e+00
24 20 12  1 12  0  0.0 5.703885108232e-06-4.547473508865e-13 0.000000000000e+00
    8.800000000000e+01 1.403125000000e+01 4.852702134522e-09-1.786773889253e+00
    6.724148988724e-07 1.061044586822e-02 9.510666131973e-06 5.153625450134e+03
    2.160000000000e+05 1.285225152969e-07 2.761011513361e+00-1.303851604462e-07
    9.359237352431e-01 1.826562500000e+02 7.043006852477e-01-7.884971297847e-09
   -5.143071372424e-10 1.000000000000e+00 2.134000000000e+03 0.000000000000e+00
    2.400000000000e+00 0.000000000000e+00 2.793967723846e-09 8.800000000000e+01
    2.088000000000e+05 4.000000000000e+00
32 20 12  1 12  0  0.0 4.897359758615e-06 2.955857780762e-12 0.000000000000e+00
    5.900000000000e+01-2.906250000000e+00 5.109498545409e-09 8.105007287458e-01
   -9.685754776001e-08 4.279854940251e-03 4.975125193596e-06 5.153598257065e+03
    2.160000000000e+05-1.862645149231e-09 1.772257056180e+00 5.215406417847e-08
    9.565101832428e-01 2.821250000000e+02-2.465192187504e+00-8.258201130082e-09
   -1.871506527187e-10 1.000000000000e+00 2.134000000000e+03 0.000000000000e+00
    2.400000000000e+00 0.000000000000e+00 4.656612873077e-10 5.900000000000e+01
    2.088000000000e+05 4.000000000000e+00
26 20 12  1 12  0  0.0 7.585622370243e-06 5.911715561524e-12 0.000000000000e+00
    7.800000000000e+01 1.489062500000e+02 4.615906556750e-09 1.973368329546e+00
    7.722526788712e-06 5.362275172956e-03 7.437542080879e-06 5.153726037979e+03
    2.160000000000e+05-1.303851604462e-08-2.448818700728e+00 5.587935447693e-08
    9.444450326351e-01 2.271562500000e+02 2.159946098425e-01-8.172840431609e-09
    1.278624688422e-10 1.000000000000e+00 2.134000000000e+03 0.000000000000e+00
    2.400000000000e+00 0.000000000000e+00 6.984919309616e-09 7.800000000000e+01
    2.088000000000e+05 4.000000000000e+00
23 20 12  1 12  0  0.0 1.061703078449e-04 3.637978807092e-12 0.000000000000e+00
    6.100000000000e+01-9.312500000000e+00 4.449113894881e-09-2.163422841737e+00
   -3.948807716370e-07 1.105425646529e-03 1.014210283756e-05 5.153632549286e+03
    2.160000000000e+05-2.607703208923e-08 7.068413380018e-01 3.911554813385e-08
    9.623460633592e-01 1.852812500000e+02 2.167876504187e+00-7.760680406347e-09
    6.189543533618e-10 1.000000000000e+00 2.134000000000e+03 0.000000000000e+00
    2.400000000000e+00 0.000000000000e+00-8.381903171539e-09 8.290000000000e+02
    2.088000000000e+05 4.000000000000e+00
18 20 12  1 12  0  0.0 3.278516232967e-04 4.206412995700e-12 0.000000000000e+00
    4.100000000000e+01-1.407187500000e+02 4.193746114930e-09-1.898986741106e+00
   -7.355585694313e-06 1.174506498501e-03 8.800998330116e-06 5.153709785461e+03
    2.160000000000e+05 0.000000000000e+00-2.918089246587e-01-9.313225746155e-09
    9.664024484610e-01 2.159687500000e+02 2.958610738813e+00-7.858541625516e-09
   -5.107355599004e-11 1.000000000000e+00 2.134000000000e+03 0.000000000000e+00
    2.400000000000e+00 0.000000000000e+00-8.381903171539e-09 5.530000000000e+02
    2.088000000000e+05 4.000000000000e+00
